STARLINK-36552          
1 67503U 26012L   26043.83335647 -.01955898  00000+0 -41342-1 0  9997
2 67503  43.0000  95.0290 0001270 293.0759 202.6095 15.47628206  5077
STARLINK-36512          
1 67504U 26012M   26043.83335647 -.00392557  00000+0 -69888-2 0  9990
2 67504  43.0006  95.1396 0001467 293.5942 156.9736 15.50729586  5079
STARLINK-36545          
1 67505U 26012N   26043.83335647 -.00103530  00000+0 -17793-2 0  9990
2 67505  43.0006  95.0934 0001280 280.0496 188.8562 15.50626165  5075
STARLINK-36553          
1 67506U 26012P   26043.83335647 -.01695485  00000+0 -31832-1 0  9996
2 67506  43.0002  94.9939 0000910 279.5291 230.1436 15.51024888  5076
STARLINK-36521          
1 67507U 26012Q   26043.83335647 -.01010199  00000+0 -18647-1 0  9999
2 67507  43.0005  94.9821 0000790 276.3693 237.5303 15.50930529  5078
STARLINK-36526          
1 67508U 26012R   26043.83335647 -.00067047  00000+0 -11456-2 0  9995
2 67508  43.0004  94.9701 0001150 273.9056 245.2489 15.50609866  5070
STARLINK-36541          
1 67509U 26012S   26043.56085671  .00037662  00000+0  64459-3 0  9995
2 67509  43.0009  97.6402 0000522 273.0467  87.0333 15.50584019  3905
STARLINK-36549          
1 67510U 26012T   26043.83335647 -.01986648  00000+0 -38868-1 0  9991
2 67510  43.0006  94.8427 0000761 294.0569 272.6479 15.49864600  5024
STARLINK-36540          
1 67511U 26012U   26043.49478179  .00109093  00000+0  18378-2 0  9995
2 67511  42.9998  98.0023 0001545 283.1830  76.8858 15.50605478  3898
STARLINK-36538          
1 67512U 26012V   26043.83335647 -.01957670  00000+0 -47563-1 0  9998
2 67512  43.0009  95.2744 0001599 279.9031 115.3773 15.43610834  5079
STARLINK-36531          
1 67513U 26012W   26043.83335647 -.01914188  00000+0 -44184-1 0  9992
2 67513  43.0001  95.1866 0001645 283.9294 147.3493 15.45026384  5015
STARLINK-36530          
1 67514U 26012X   26043.83335647 -.01923375  00000+0 -42712-1 0  9996
2 67514  43.0005  95.2235 0001639 279.3707 136.8496 15.46157824  5013
