CCSDS_OMM_VERS = 2.0
CREATION_DATE  = 
ORIGINATOR     = 

OBJECT_NAME    = STARLINK-36552
OBJECT_ID      = 2026-012L
CENTER_NAME    = EARTH
REF_FRAME      = TEME
TIME_SYSTEM    = UTC
MEAN_ELEMENT_THEORY = SGP/SGP4

EPOCH          = 2026-02-12T20:00:01.999008
MEAN_MOTION    = 15.47628206
ECCENTRICITY   = .000127
INCLINATION    = 43.0000
RA_OF_ASC_NODE = 95.0290
ARG_OF_PERICENTER = 293.0759
MEAN_ANOMALY   = 202.6095

EPHEMERIS_TYPE = 0
CLASSIFICATION_TYPE = U
NORAD_CAT_ID   = 67503
ELEMENT_SET_NO = 999
REV_AT_EPOCH   = 507
BSTAR          = -.41342E-1
MEAN_MOTION_DOT = -.1955898E-1
MEAN_MOTION_DDOT = 0

CCSDS_OMM_VERS = 2.0
CREATION_DATE  = 
ORIGINATOR     = 

OBJECT_NAME    = STARLINK-36512
OBJECT_ID      = 2026-012M
CENTER_NAME    = EARTH
REF_FRAME      = TEME
TIME_SYSTEM    = UTC
MEAN_ELEMENT_THEORY = SGP/SGP4

EPOCH          = 2026-02-12T20:00:01.999008
MEAN_MOTION    = 15.50729586
ECCENTRICITY   = .0001467
INCLINATION    = 43.0006
RA_OF_ASC_NODE = 95.1396
ARG_OF_PERICENTER = 293.5942
MEAN_ANOMALY   = 156.9736

EPHEMERIS_TYPE = 0
CLASSIFICATION_TYPE = U
NORAD_CAT_ID   = 67504
ELEMENT_SET_NO = 999
REV_AT_EPOCH   = 507
BSTAR          = -.69888E-2
MEAN_MOTION_DOT = -.392557E-2
MEAN_MOTION_DDOT = 0

CCSDS_OMM_VERS = 2.0
CREATION_DATE  = 
ORIGINATOR     = 

OBJECT_NAME    = STARLINK-36545
OBJECT_ID      = 2026-012N
CENTER_NAME    = EARTH
REF_FRAME      = TEME
TIME_SYSTEM    = UTC
MEAN_ELEMENT_THEORY = SGP/SGP4

EPOCH          = 2026-02-12T20:00:01.999008
MEAN_MOTION    = 15.50626165
ECCENTRICITY   = .000128
INCLINATION    = 43.0006
RA_OF_ASC_NODE = 95.0934
ARG_OF_PERICENTER = 280.0496
MEAN_ANOMALY   = 188.8562

EPHEMERIS_TYPE = 0
CLASSIFICATION_TYPE = U
NORAD_CAT_ID   = 67505
ELEMENT_SET_NO = 999
REV_AT_EPOCH   = 507
BSTAR          = -.17793E-2
MEAN_MOTION_DOT = -.10353E-2
MEAN_MOTION_DDOT = 0

CCSDS_OMM_VERS = 2.0
CREATION_DATE  = 
ORIGINATOR     = 

OBJECT_NAME    = STARLINK-36553
OBJECT_ID      = 2026-012P
CENTER_NAME    = EARTH
REF_FRAME      = TEME
TIME_SYSTEM    = UTC
MEAN_ELEMENT_THEORY = SGP/SGP4

EPOCH          = 2026-02-12T20:00:01.999008
MEAN_MOTION    = 15.51024888
ECCENTRICITY   = .000091
INCLINATION    = 43.0002
RA_OF_ASC_NODE = 94.9939
ARG_OF_PERICENTER = 279.5291
MEAN_ANOMALY   = 230.1436

EPHEMERIS_TYPE = 0
CLASSIFICATION_TYPE = U
NORAD_CAT_ID   = 67506
ELEMENT_SET_NO = 999
REV_AT_EPOCH   = 507
BSTAR          = -.31832E-1
MEAN_MOTION_DOT = -.1695485E-1
MEAN_MOTION_DDOT = 0

CCSDS_OMM_VERS = 2.0
CREATION_DATE  = 
ORIGINATOR     = 

OBJECT_NAME    = STARLINK-36521
OBJECT_ID      = 2026-012Q
CENTER_NAME    = EARTH
REF_FRAME      = TEME
TIME_SYSTEM    = UTC
MEAN_ELEMENT_THEORY = SGP/SGP4

EPOCH          = 2026-02-12T20:00:01.999008
MEAN_MOTION    = 15.50930529
ECCENTRICITY   = .000079
INCLINATION    = 43.0005
RA_OF_ASC_NODE = 94.9821
ARG_OF_PERICENTER = 276.3693
MEAN_ANOMALY   = 237.5303

EPHEMERIS_TYPE = 0
CLASSIFICATION_TYPE = U
NORAD_CAT_ID   = 67507
ELEMENT_SET_NO = 999
REV_AT_EPOCH   = 507
BSTAR          = -.18647E-1
MEAN_MOTION_DOT = -.1010199E-1
MEAN_MOTION_DDOT = 0

CCSDS_OMM_VERS = 2.0
CREATION_DATE  = 
ORIGINATOR     = 

OBJECT_NAME    = STARLINK-36526
OBJECT_ID      = 2026-012R
CENTER_NAME    = EARTH
REF_FRAME      = TEME
TIME_SYSTEM    = UTC
MEAN_ELEMENT_THEORY = SGP/SGP4

EPOCH          = 2026-02-12T20:00:01.999008
MEAN_MOTION    = 15.50609866
ECCENTRICITY   = .000115
INCLINATION    = 43.0004
RA_OF_ASC_NODE = 94.9701
ARG_OF_PERICENTER = 273.9056
MEAN_ANOMALY   = 245.2489

EPHEMERIS_TYPE = 0
CLASSIFICATION_TYPE = U
NORAD_CAT_ID   = 67508
ELEMENT_SET_NO = 999
REV_AT_EPOCH   = 507
BSTAR          = -.11456E-2
MEAN_MOTION_DOT = -.67047E-3
MEAN_MOTION_DDOT = 0

CCSDS_OMM_VERS = 2.0
CREATION_DATE  = 
ORIGINATOR     = 

OBJECT_NAME    = STARLINK-36541
OBJECT_ID      = 2026-012S
CENTER_NAME    = EARTH
REF_FRAME      = TEME
TIME_SYSTEM    = UTC
MEAN_ELEMENT_THEORY = SGP/SGP4

EPOCH          = 2026-02-12T13:27:38.019744
MEAN_MOTION    = 15.50584019
ECCENTRICITY   = .0000522
INCLINATION    = 43.0009
RA_OF_ASC_NODE = 97.6402
ARG_OF_PERICENTER = 273.0467
MEAN_ANOMALY   = 87.0333

EPHEMERIS_TYPE = 0
CLASSIFICATION_TYPE = U
NORAD_CAT_ID   = 67509
ELEMENT_SET_NO = 999
REV_AT_EPOCH   = 390
BSTAR          = .64459E-3
MEAN_MOTION_DOT = .37662E-3
MEAN_MOTION_DDOT = 0

CCSDS_OMM_VERS = 2.0
CREATION_DATE  = 
ORIGINATOR     = 

OBJECT_NAME    = STARLINK-36549
OBJECT_ID      = 2026-012T
CENTER_NAME    = EARTH
REF_FRAME      = TEME
TIME_SYSTEM    = UTC
MEAN_ELEMENT_THEORY = SGP/SGP4

EPOCH          = 2026-02-12T20:00:01.999008
MEAN_MOTION    = 15.49864600
ECCENTRICITY   = .0000761
INCLINATION    = 43.0006
RA_OF_ASC_NODE = 94.8427
ARG_OF_PERICENTER = 294.0569
MEAN_ANOMALY   = 272.6479

EPHEMERIS_TYPE = 0
CLASSIFICATION_TYPE = U
NORAD_CAT_ID   = 67510
ELEMENT_SET_NO = 999
REV_AT_EPOCH   = 502
BSTAR          = -.38868E-1
MEAN_MOTION_DOT = -.1986648E-1
MEAN_MOTION_DDOT = 0

CCSDS_OMM_VERS = 2.0
CREATION_DATE  = 
ORIGINATOR     = 

OBJECT_NAME    = STARLINK-36540
OBJECT_ID      = 2026-012U
CENTER_NAME    = EARTH
REF_FRAME      = TEME
TIME_SYSTEM    = UTC
MEAN_ELEMENT_THEORY = SGP/SGP4

EPOCH          = 2026-02-12T11:52:29.146656
MEAN_MOTION    = 15.50605478
ECCENTRICITY   = .00015455
INCLINATION    = 42.9998
RA_OF_ASC_NODE = 98.0023
ARG_OF_PERICENTER = 283.1830
MEAN_ANOMALY   = 76.8858

EPHEMERIS_TYPE = 0
CLASSIFICATION_TYPE = U
NORAD_CAT_ID   = 67511
ELEMENT_SET_NO = 999
REV_AT_EPOCH   = 389
BSTAR          = .18378345E-2
MEAN_MOTION_DOT = .109093E-2
MEAN_MOTION_DDOT = 0

CCSDS_OMM_VERS = 2.0
CREATION_DATE  = 
ORIGINATOR     = 

OBJECT_NAME    = STARLINK-36538
OBJECT_ID      = 2026-012V
CENTER_NAME    = EARTH
REF_FRAME      = TEME
TIME_SYSTEM    = UTC
MEAN_ELEMENT_THEORY = SGP/SGP4

EPOCH          = 2026-02-12T20:00:01.999008
MEAN_MOTION    = 15.43610834
ECCENTRICITY   = .0001599
INCLINATION    = 43.0009
RA_OF_ASC_NODE = 95.2744
ARG_OF_PERICENTER = 279.9031
MEAN_ANOMALY   = 115.3773

EPHEMERIS_TYPE = 0
CLASSIFICATION_TYPE = U
NORAD_CAT_ID   = 67512
ELEMENT_SET_NO = 999
REV_AT_EPOCH   = 507
BSTAR          = -.47563E-1
MEAN_MOTION_DOT = -.195767E-1
MEAN_MOTION_DDOT = 0

CCSDS_OMM_VERS = 2.0
CREATION_DATE  = 
ORIGINATOR     = 

OBJECT_NAME    = STARLINK-36531
OBJECT_ID      = 2026-012W
CENTER_NAME    = EARTH
REF_FRAME      = TEME
TIME_SYSTEM    = UTC
MEAN_ELEMENT_THEORY = SGP/SGP4

EPOCH          = 2026-02-12T20:00:01.999008
MEAN_MOTION    = 15.45026384
ECCENTRICITY   = .0001645
INCLINATION    = 43.0001
RA_OF_ASC_NODE = 95.1866
ARG_OF_PERICENTER = 283.9294
MEAN_ANOMALY   = 147.3493

EPHEMERIS_TYPE = 0
CLASSIFICATION_TYPE = U
NORAD_CAT_ID   = 67513
ELEMENT_SET_NO = 999
REV_AT_EPOCH   = 501
BSTAR          = -.44184E-1
MEAN_MOTION_DOT = -.1914188E-1
MEAN_MOTION_DDOT = 0

CCSDS_OMM_VERS = 2.0
CREATION_DATE  = 
ORIGINATOR     = 

OBJECT_NAME    = STARLINK-36530
OBJECT_ID      = 2026-012X
CENTER_NAME    = EARTH
REF_FRAME      = TEME
TIME_SYSTEM    = UTC
MEAN_ELEMENT_THEORY = SGP/SGP4

EPOCH          = 2026-02-12T20:00:01.999008
MEAN_MOTION    = 15.46157824
ECCENTRICITY   = .0001639
INCLINATION    = 43.0005
RA_OF_ASC_NODE = 95.2235
ARG_OF_PERICENTER = 279.3707
MEAN_ANOMALY   = 136.8496

EPHEMERIS_TYPE = 0
CLASSIFICATION_TYPE = U
NORAD_CAT_ID   = 67514
ELEMENT_SET_NO = 999
REV_AT_EPOCH   = 501
BSTAR          = -.42712E-1
MEAN_MOTION_DOT = -.1923375E-1
MEAN_MOTION_DDOT = 0

